{
  "name": "SATGUS",
  "line1": "1 62713U 25009DJ  25327.22643428  .00008448  00000+0  72342-3 0  9999",
  "line2": "2 62713  97.7228  45.5611 0003337 105.5238 254.6353 14.97810674 46698",
  "fetched_at": "2025-11-24T00:20:08.555008+00:00"
}